TIGER-8                 
1 59120U 24043Y   26194.96881279  .00005909  00000+0  12653-3 0  9994
2 59120  97.5565 344.6646 0008866 106.5857 253.6365 15.45155323131929
TIGER-7                 
1 59141U 24043AV  26194.94174865  .00007281  00000+0  13475-3 0  9999
2 59141  97.5510 347.1369 0006824  80.4233 279.7788 15.49331051132110
