{"fetched_at":"2026-07-14T17:41:12.948Z","source":"https://celestrak.org/NORAD/elements/gp.php?NAME=TIGER&FORMAT=JSON","constellation":"oq-technology","records":[{"OBJECT_NAME":"TIGER-8","OBJECT_ID":"2024-043Y","EPOCH":"2026-07-13T23:15:05.425056","CLASSIFICATION_TYPE":"U","MEAN_MOTION":15.45155323,"ECCENTRICITY":0.0008866,"INCLINATION":97.5565,"RA_OF_ASC_NODE":344.6646,"ARG_OF_PERICENTER":106.5857,"MEAN_ANOMALY":253.6365,"EPHEMERIS_TYPE":0,"NORAD_CAT_ID":59120,"ELEMENT_SET_NO":999,"REV_AT_EPOCH":13192,"BSTAR":0.00012653,"MEAN_MOTION_DOT":0.00005909,"MEAN_MOTION_DDOT":0},{"OBJECT_NAME":"TIGER-7","OBJECT_ID":"2024-043AV","EPOCH":"2026-07-13T22:36:07.083360","CLASSIFICATION_TYPE":"U","MEAN_MOTION":15.49331051,"ECCENTRICITY":0.0006824,"INCLINATION":97.551,"RA_OF_ASC_NODE":347.1369,"ARG_OF_PERICENTER":80.4233,"MEAN_ANOMALY":279.7788,"EPHEMERIS_TYPE":0,"NORAD_CAT_ID":59141,"ELEMENT_SET_NO":999,"REV_AT_EPOCH":13211,"BSTAR":0.00013475,"MEAN_MOTION_DOT":0.00007281,"MEAN_MOTION_DDOT":0}]}
